#aV2009  8  6  0  0   .00000000      96 DD+AD WGS84 FIT  NGA
## 1543 345600.00000000   900.00000000 55049  .0000000000000
+   31     1  2  3  4  6  7  8  9 10 11 12 13 14 15 16 17 18
+         19 20 21 22 23 24 25 26 27 28 29 30 31 32  0  0  0
+          0  0  0  0  0  0  0  0  0  0  0  0  0  0  0  0  0
+          0  0  0  0  0  0  0  0  0  0  0  0  0  0  0  0  0
+          0  0  0  0  0  0  0  0  0  0  0  0  0  0  0  0  0
++         0  0  0  0  0  0  0  0  0  0  0  0  0  0  0  0  0
++         0  0  0  0  0  0  0  0  0  0  0  0  0  0  0  0  0
++         0  0  0  0  0  0  0  0  0  0  0  0  0  0  0  0  0
++         0  0  0  0  0  0  0  0  0  0  0  0  0  0  0  0  0
++         0  0  0  0  0  0  0  0  0  0  0  0  0  0  0  0  0
%c cc cc ccc ccc cccc cccc cccc cccc ccccc ccccc ccccc ccccc
%c cc cc ccc ccc cccc cccc cccc cccc ccccc ccccc ccccc ccccc
%f  0.0000000  0.000000000  0.00000000000  0.000000000000000
%f  0.0000000  0.000000000  0.00000000000  0.000000000000000
%i    0    0    0    0      0      0      0      0         0
%i    0    0    0    0      0      0      0      0         0
/*      NGA, ST. LOUIS,MO.                                  
/*   EPHEMERIS COMPUTED FROM  3 DAYS OF DATA                
/* CCCCCCCCCCCCCCCCCCCCCCCCCCCCCCCCCCCCCCCCCCCCCCCCCCCCCCCCC
/* CCCCCCCCCCCCCCCCCCCCCCCCCCCCCCCCCCCCCCCCCCCCCCCCCCCCCCCCC
*  2009  8  6  3  0   .00000000                                                 
P  1 -15255.043572    855.086300  21622.596553    -60.661475                    
V  1   2593.515741 -27570.610064   3008.560696       .020314                    
P  2  -6866.449618 -19749.604024  16537.545718    163.699744                    
V  2  18260.687534  10642.814728  19775.557108       .021162                    
P  3   3221.568300  16334.806944 -20963.115822    429.903987                    
V  3 -23005.872385  12324.441560   6522.145273       .051256                    
P  4   5416.535930 -15090.712560  20993.811730   -206.960612                    
V  4  22231.752523  15527.597494   5753.725415      -.168076                    
P  6  -2412.831232  17427.950092 -19687.830328    211.886796                    
V  6 -23525.727710  10018.461706  11718.515732       .093209                    
P  7  21751.306423   3191.564994 -15025.888993     13.912972                    
V  7  14202.858027  12700.373179  23156.812736      -.007112                    
P  8  13815.604573  -7030.215530 -21690.196825   -215.340219                    
V  8  20777.301884  17655.505737   7030.864790      -.017745                    
P  9 -21266.690534 -15940.907174  -1624.277630     70.440028                    
V  9   2291.994672  -1129.540849 -31980.527472       .020690                    
P 10  -2130.006519 -25160.817866  -7823.068557    -20.635438                    
V 10   4272.810519  -9319.911145  29751.133192      -.008626                    
P 11  24194.693278  11404.885870   -762.497479    -13.798279                    
V 11  -2580.179410   4023.279022 -29839.769545      -.017363                    
P 12 -12385.015751 -12492.926413  19995.613333   -238.981040                    
V 12   3939.534843 -24911.773792 -13041.258032       .059710                    
P 13  25372.453301  -5582.528336   5431.637904    302.694225                    
V 13  -6024.578260   4011.901872  31500.867128       .006299                    
P 14 -19701.747250  14741.212168   9952.862052    -69.331472                    
V 14 -12264.251528   2860.455693 -28995.274524       .054757                    
P 15 -10345.591599 -11863.017324 -21377.070570   -312.751645                    
V 15  24563.924162 -11707.111913  -5320.616284      -.020679                    
P 16  -2056.754539  26252.253077  -2165.036081     25.764204                    
V 16  -3106.846180   2431.954848  31946.882987      -.037183                    
P 17  19821.244592 -15079.507612   9018.908044     75.333775                    
V 17  11582.508298  -1866.182918 -28996.283603       .025998                    
P 18 -15490.848539   8647.175422 -19409.184338      2.876694                    
V 18   1888.574197 -25335.677896 -13017.941449       .029872                    
P 19  12094.024894  11251.246548 -20795.198125     16.283281                    
V 19 -24746.867790   9470.037311  -8981.869901      -.014949                    
P 20  13703.998883  10659.257337  19990.295502     75.470224                    
V 20  -3433.158016  25511.199936 -11137.962018      -.009610                    
P 21 -20961.172589   -748.085293 -16370.348399     -1.483078                    
V 21 -15563.191877 -14465.189303  19619.854747      -.022126                    
P 22 -12025.268893  20101.139907 -12280.084618    193.904299                    
V 22   -636.716931 -16193.474951 -25622.990130      -.006412                    
P 23  20656.095535   3397.131790  16480.395729    389.694998                    
V 23 -18577.470343   9617.920456  20951.836004      -.002603                    
P 24 -22482.648634 -11935.417602  -6980.272800    210.106682                    
V 24  -5006.881486  -8267.529935  29963.898953       .030657                    
P 25  23835.608861   7988.634211  -7925.008835    540.774126                    
V 25   7733.089121   7651.883892  29891.399438       .162683                    
P 26 -25743.018351   6836.658492  -3900.434847     64.669930                    
V 26   3464.330430  -2664.112426 -31617.664498      -.002238                    
P 27 -19447.223747 -17043.107949  -5392.930785     71.817366                    
V 27   7777.292335   2201.765576 -31074.477626       .032378                    
P 28  12527.494063 -18036.960138 -14273.942856    -26.133411                    
V 28   -422.805362  19127.592256 -24127.342462      -.000567                    
P 29 -24998.676726   4116.380065   7999.506289     46.124310                    
V 29   8296.691498  -6234.503159  29553.111093       .034747                    
P 30 -15190.306364   -733.463011  21395.330038    166.546255                    
V 30   1855.526362 -28041.832033    423.580157       .028345                    
P 31  -2814.302842  15893.337937  21271.433637    -64.593200                    
V 31 -21781.734794 -15156.088694   8661.195223      -.003964                    
P 32   8864.269543  18276.907083  17642.231493    219.887428                    
V 32  -5567.500237  20845.188897 -18960.690370      -.065304                    
EOF
